CYGNUS NG-23            
1 65616U 25208A   25354.21533065  .00006989  00000+0  13177-3 0  9998
2 65616  51.6321 105.4589 0003198 275.1086  84.9538 15.49679666   226
DRAGONFLY               
1 65729U 98067XH  25354.48802591  .00147536  00000+0  98006-3 0  9996
2 65729  51.6254  96.0114 0007438 325.9909  34.0612 15.74448787 14381
1998-067XK              
1 65731U 98067XK  25354.00696790  .00076617  00000+0  70175-3 0  9997
2 65731  51.6294 100.3244 0004763 292.7833  67.2659 15.67078773 14280
RSP-03                  
1 65732U 98067XL  25353.42469933  .00106087  00000+0  84699-3 0  9991
2 65732  51.6265 102.4221 0005658 294.5755  65.4652 15.70283101 14217
GHS-01                  
1 65733U 98067XM  25354.48693374  .00197582  00000+0  11085-2 0  9995
2 65733  51.6277  95.2602 0008545 329.3713  30.6788 15.78117355 14402
YOTSUBA-KULOVER         
1 65941U 98067XN  25353.43930380  .00050991  00000+0  61317-3 0  9997
2 65941  51.6289 106.2819 0001753 320.2615  39.8249 15.60329664 10907
BOTAN                   
1 65942U 98067XP  25354.19570992  .00085410  00000+0  87028-3 0  9992
2 65942  51.6284 101.5830 0002951 302.2200  57.8508 15.64374422 11034
E-KAGAKU-1              
1 65943U 98067XQ  25352.35057484  .00070368  00000+0  84620-3 0  9996
2 65943  51.6302 111.7666 0001345 249.8249 110.2600 15.60193795 10732
HTV-X1                  
1 66174U 25241A   25354.21533065  .00006989  00000+0  13177-3 0  9995
2 66174  51.6321 105.4589 0003198 275.1086  84.9538 15.49679666   518
SHENZHOU-22             
1 66645U 25272A   25354.20808758  .00018311  00000+0  22776-3 0  9992
2 66645  41.4685 331.3573 0007746  96.7908 263.3812 15.59496428265196
